{
  "type": "FeatureCollection",
  "features": [
    {
      "type": "Feature",
      "properties": {
        "norad_id": 30913,
        "name": "FENGYUN 1C DEB",
        "group": "fengyun-1c-debris",
        "lat": 14.328463262312097,
        "lon": 4.72900874341552,
        "alt_km": 912.4568698971525,
        "timestamp": "2025-12-05T18:53:13.561367+00:00",
        "meta_object_name": "FENGYUN 1C DEB",
        "meta_object_id": "1999-025AZB",
        "meta_epoch": "2025-12-02T20:44:20.475168",
        "meta_mean_motion": 14.04919421,
        "meta_eccentricity": 0.00482602,
        "meta_inclination": 98.747,
        "meta_ra_of_asc_node": 4.1652,
        "meta_arg_of_pericenter": 208.8355,
        "meta_mean_anomaly": 151.0144,
        "meta_ephemeris_type": 0,
        "meta_classification_type": "U",
        "meta_norad_cat_id": 30913,
        "meta_element_set_no": 999,
        "meta_rev_at_epoch": 95779,
        "meta_bstar": 0.0009232793,
        "meta_mean_motion_dot": 1.457e-05,
        "meta_mean_motion_ddot": 0,
        "tle_line1": "1 30913U 99025AZB 25336.86412587  .00001457  00000+0  92328-3 0  9994",
        "tle_line2": "2 30913  98.7470   4.1652 0048260 208.8355 151.0144 14.04919421957790"
      },
      "geometry": {
        "type": "Point",
        "coordinates": [
          4.72900874341552,
          14.328463262312097
        ]
      }
    },
    {
      "type": "Feature",
      "properties": {
        "norad_id": 30914,
        "name": "FENGYUN 1C DEB",
        "group": "fengyun-1c-debris",
        "lat": 42.34613996552743,
        "lon": 53.36679542431364,
        "alt_km": 1445.0260484021492,
        "timestamp": "2025-12-05T18:53:13.561377+00:00",
        "meta_object_name": "FENGYUN 1C DEB",
        "meta_object_id": "1999-025AZC",
        "meta_epoch": "2025-12-04T09:11:52.960704",
        "meta_mean_motion": 13.08772987,
        "meta_eccentricity": 0.0515432,
        "meta_inclination": 99.9821,
        "meta_ra_of_asc_node": 222.8163,
        "meta_arg_of_pericenter": 13.3139,
        "meta_mean_anomaly": 348.1004,
        "meta_ephemeris_type": 0,
        "meta_classification_type": "U",
        "meta_norad_cat_id": 30914,
        "meta_element_set_no": 999,
        "meta_rev_at_epoch": 58966,
        "meta_bstar": 0.0079369,
        "meta_mean_motion_dot": 5.164e-05,
        "meta_mean_motion_ddot": 0,
        "tle_line1": "1 30914U 99025AZC 25338.38325186  .00005164  00000+0  79369-2 0  9990",
        "tle_line2": "2 30914  99.9821 222.8163 0515432  13.3139 348.1004 13.08772987589667"
      },
      "geometry": {
        "type": "Point",
        "coordinates": [
          53.36679542431364,
          42.34613996552743
        ]
      }
    },
    {
      "type": "Feature",
      "properties": {
        "norad_id": 30915,
        "name": "FENGYUN 1C DEB",
        "group": "fengyun-1c-debris",
        "lat": -4.602336129936752,
        "lon": -124.89464762219183,
        "alt_km": 773.4971890578654,
        "timestamp": "2025-12-05T18:53:13.561391+00:00",
        "meta_object_name": "FENGYUN 1C DEB",
        "meta_object_id": "1999-025AZD",
        "meta_epoch": "2025-12-03T22:12:26.394336",
        "meta_mean_motion": 14.24934113,
        "meta_eccentricity": 0.00537934,
        "meta_inclination": 98.943,
        "meta_ra_of_asc_node": 53.9356,
        "meta_arg_of_pericenter": 192.6719,
        "meta_mean_anomaly": 167.3111,
        "meta_ephemeris_type": 0,
        "meta_classification_type": "U",
        "meta_norad_cat_id": 30915,
        "meta_element_set_no": 999,
        "meta_rev_at_epoch": 96387,
        "meta_bstar": 0.0032692177,
        "meta_mean_motion_dot": 7.72e-05,
        "meta_mean_motion_ddot": 0,
        "tle_line1": "1 30915U 99025AZD 25337.92530549  .00007720  00000+0  32692-2 0  9999",
        "tle_line2": "2 30915  98.9430  53.9356 0053793 192.6719 167.3111 14.24934113963871"
      },
      "geometry": {
        "type": "Point",
        "coordinates": [
          -124.89464762219183,
          -4.602336129936752
        ]
      }
    },
    {
      "type": "Feature",
      "properties": {
        "norad_id": 30916,
        "name": "FENGYUN 1C DEB",
        "group": "fengyun-1c-debris",
        "lat": -79.44683607162605,
        "lon": 98.46279956790337,
        "alt_km": 825.7856813091403,
        "timestamp": "2025-12-05T18:53:13.561401+00:00",
        "meta_object_name": "FENGYUN 1C DEB",
        "meta_object_id": "1999-025AZE",
        "meta_epoch": "2025-12-03T22:05:23.424864",
        "meta_mean_motion": 14.08742079,
        "meta_eccentricity": 0.0062408,
        "meta_inclination": 99.0032,
        "meta_ra_of_asc_node": 38.2781,
        "meta_arg_of_pericenter": 283.2218,
        "meta_mean_anomaly": 251.3545,
        "meta_ephemeris_type": 0,
        "meta_classification_type": "U",
        "meta_norad_cat_id": 30916,
        "meta_element_set_no": 999,
        "meta_rev_at_epoch": 95719,
        "meta_bstar": 0.0022666,
        "meta_mean_motion_dot": 3.934e-05,
        "meta_mean_motion_ddot": 0,
        "tle_line1": "1 30916U 99025AZE 25337.92041001  .00003934  00000+0  22666-2 0  9993",
        "tle_line2": "2 30916  99.0032  38.2781 0062408 283.2218 251.3545 14.08742079957197"
      },
      "geometry": {
        "type": "Point",
        "coordinates": [
          98.46279956790337,
          -79.44683607162605
        ]
      }
    },
    {
      "type": "Feature",
      "properties": {
        "norad_id": 30918,
        "name": "FENGYUN 1C DEB",
        "group": "fengyun-1c-debris",
        "lat": -59.005241218682315,
        "lon": 106.84851416464046,
        "alt_km": 1016.5878260110985,
        "timestamp": "2025-12-05T18:53:13.561412+00:00",
        "meta_object_name": "FENGYUN 1C DEB",
        "meta_object_id": "1999-025AZG",
        "meta_epoch": "2025-12-04T19:44:20.227776",
        "meta_mean_motion": 13.96769696,
        "meta_eccentricity": 0.0158492,
        "meta_inclination": 98.4163,
        "meta_ra_of_asc_node": 91.6979,
        "meta_arg_of_pericenter": 147.4427,
        "meta_mean_anomaly": 344.5797,
        "meta_ephemeris_type": 0,
        "meta_classification_type": "U",
        "meta_norad_cat_id": 30918,
        "meta_element_set_no": 999,
        "meta_rev_at_epoch": 94942,
        "meta_bstar": 0.0025721918,
        "meta_mean_motion_dot": 3.935e-05,
        "meta_mean_motion_ddot": 0,
        "tle_line1": "1 30918U 99025AZG 25338.82245634  .00003935  00000+0  25722-2 0  9990",
        "tle_line2": "2 30918  98.4163  91.6979 0158492 147.4427 344.5797 13.96769696949422"
      },
      "geometry": {
        "type": "Point",
        "coordinates": [
          106.84851416464046,
          -59.005241218682315
        ]
      }
    },
    {
      "type": "Feature",
      "properties": {
        "norad_id": 30920,
        "name": "FENGYUN 1C DEB",
        "group": "fengyun-1c-debris",
        "lat": 67.0712721629645,
        "lon": 99.27176641141165,
        "alt_km": 778.1552171775738,
        "timestamp": "2025-12-05T18:53:13.561422+00:00",
        "meta_object_name": "FENGYUN 1C DEB",
        "meta_object_id": "1999-025AZJ",
        "meta_epoch": "2025-12-04T15:26:19.940640",
        "meta_mean_motion": 14.16423309,
        "meta_eccentricity": 0.0111321,
        "meta_inclination": 98.9193,
        "meta_ra_of_asc_node": 119.9185,
        "meta_arg_of_pericenter": 121.6596,
        "meta_mean_anomaly": 239.5494,
        "meta_ephemeris_type": 0,
        "meta_classification_type": "U",
        "meta_norad_cat_id": 30920,
        "meta_element_set_no": 999,
        "meta_rev_at_epoch": 94979,
        "meta_bstar": 0.0097172,
        "meta_mean_motion_dot": 0.00020534,
        "meta_mean_motion_ddot": 0,
        "tle_line1": "1 30920U 99025AZJ 25338.64328635  .00020534  00000+0  97172-2 0  9998",
        "tle_line2": "2 30920  98.9193 119.9185 0111321 121.6596 239.5494 14.16423309949795"
      },
      "geometry": {
        "type": "Point",
        "coordinates": [
          99.27176641141165,
          67.0712721629645
        ]
      }
    },
    {
      "type": "Feature",
      "properties": {
        "norad_id": 30921,
        "name": "FENGYUN 1C DEB",
        "group": "fengyun-1c-debris",
        "lat": -80.64684576197389,
        "lon": 138.08096287170977,
        "alt_km": 800.6084989826159,
        "timestamp": "2025-12-05T18:53:13.561432+00:00",
        "meta_object_name": "FENGYUN 1C DEB",
        "meta_object_id": "1999-025AZK",
        "meta_epoch": "2025-12-05T04:30:08.443008",
        "meta_mean_motion": 14.32624729,
        "meta_eccentricity": 0.0017363,
        "meta_inclination": 98.8439,
        "meta_ra_of_asc_node": 66.5148,
        "meta_arg_of_pericenter": 61.2243,
        "meta_mean_anomaly": 2.482,
        "meta_ephemeris_type": 0,
        "meta_classification_type": "U",
        "meta_norad_cat_id": 30921,
        "meta_element_set_no": 999,
        "meta_rev_at_epoch": 96716,
        "meta_bstar": 0.0036453152,
        "meta_mean_motion_dot": 9.887e-05,
        "meta_mean_motion_ddot": 0,
        "tle_line1": "1 30921U 99025AZK 25339.18759772  .00009887  00000+0  36453-2 0  9992",
        "tle_line2": "2 30921  98.8439  66.5148 0017363  61.2243   2.4820 14.32624729967161"
      },
      "geometry": {
        "type": "Point",
        "coordinates": [
          138.08096287170977,
          -80.64684576197389
        ]
      }
    }
  ]
}